CCSDS_OMM_VERS = 2.0
CREATION_DATE  = 
ORIGINATOR     = 

OBJECT_NAME    = STARLINK-36899
OBJECT_ID      = 2026-041U
CENTER_NAME    = EARTH
REF_FRAME      = TEME
TIME_SYSTEM    = UTC
MEAN_ELEMENT_THEORY = SGP/SGP4

EPOCH          = 2026-03-28T03:37:51.389472
MEAN_MOTION    = 15.75324541
ECCENTRICITY   = .0000876
INCLINATION    = 53.1604
RA_OF_ASC_NODE = 329.9661
ARG_OF_PERICENTER = 79.8316
MEAN_ANOMALY   = 280.2803

EPHEMERIS_TYPE = 0
CLASSIFICATION_TYPE = U
NORAD_CAT_ID   = 68058
ELEMENT_SET_NO = 999
REV_AT_EPOCH   = 413
BSTAR          = .11837E-2
MEAN_MOTION_DOT = .185538E-2
MEAN_MOTION_DDOT = 0

CCSDS_OMM_VERS = 2.0
CREATION_DATE  = 
ORIGINATOR     = 

OBJECT_NAME    = STARLINK-36917
OBJECT_ID      = 2026-041V
CENTER_NAME    = EARTH
REF_FRAME      = TEME
TIME_SYSTEM    = UTC
MEAN_ELEMENT_THEORY = SGP/SGP4

EPOCH          = 2026-03-28T03:24:49.593024
MEAN_MOTION    = 15.70609957
ECCENTRICITY   = .0018404
INCLINATION    = 53.1588
RA_OF_ASC_NODE = 329.9065
ARG_OF_PERICENTER = 109.5508
MEAN_ANOMALY   = 250.7500

EPHEMERIS_TYPE = 0
CLASSIFICATION_TYPE = U
NORAD_CAT_ID   = 68059
ELEMENT_SET_NO = 999
REV_AT_EPOCH   = 413
BSTAR          = -.57497E-1
MEAN_MOTION_DOT = -.5976352E-1
MEAN_MOTION_DDOT = 0

CCSDS_OMM_VERS = 2.0
CREATION_DATE  = 
ORIGINATOR     = 

OBJECT_NAME    = STARLINK-36959
OBJECT_ID      = 2026-041W
CENTER_NAME    = EARTH
REF_FRAME      = TEME
TIME_SYSTEM    = UTC
MEAN_ELEMENT_THEORY = SGP/SGP4

EPOCH          = 2026-03-28T03:31:19.233696
MEAN_MOTION    = 15.75320784
ECCENTRICITY   = .0001136
INCLINATION    = 53.1589
RA_OF_ASC_NODE = 329.9347
ARG_OF_PERICENTER = 143.1098
MEAN_ANOMALY   = 217.0001

EPHEMERIS_TYPE = 0
CLASSIFICATION_TYPE = U
NORAD_CAT_ID   = 68060
ELEMENT_SET_NO = 999
REV_AT_EPOCH   = 413
BSTAR          = .12866E-2
MEAN_MOTION_DOT = .20208E-2
MEAN_MOTION_DDOT = 0

CCSDS_OMM_VERS = 2.0
CREATION_DATE  = 
ORIGINATOR     = 

OBJECT_NAME    = STARLINK-36915
OBJECT_ID      = 2026-041X
CENTER_NAME    = EARTH
REF_FRAME      = TEME
TIME_SYSTEM    = UTC
MEAN_ELEMENT_THEORY = SGP/SGP4

EPOCH          = 2026-03-27T22:31:05.683872
MEAN_MOTION    = 15.75327784
ECCENTRICITY   = .0001208
INCLINATION    = 53.1599
RA_OF_ASC_NODE = 330.7620
ARG_OF_PERICENTER = 80.5458
MEAN_ANOMALY   = 279.5699

EPHEMERIS_TYPE = 0
CLASSIFICATION_TYPE = U
NORAD_CAT_ID   = 68061
ELEMENT_SET_NO = 999
REV_AT_EPOCH   = 410
BSTAR          = .21014E-2
MEAN_MOTION_DOT = .335907E-2
MEAN_MOTION_DDOT = 0

CCSDS_OMM_VERS = 2.0
CREATION_DATE  = 
ORIGINATOR     = 

OBJECT_NAME    = STARLINK-36952
OBJECT_ID      = 2026-041Y
CENTER_NAME    = EARTH
REF_FRAME      = TEME
TIME_SYSTEM    = UTC
MEAN_ELEMENT_THEORY = SGP/SGP4

EPOCH          = 2026-03-28T02:06:01.484352
MEAN_MOTION    = 15.75318542
ECCENTRICITY   = .0000891
INCLINATION    = 53.1601
RA_OF_ASC_NODE = 330.2811
ARG_OF_PERICENTER = 76.7876
MEAN_ANOMALY   = 283.3244

EPHEMERIS_TYPE = 0
CLASSIFICATION_TYPE = U
NORAD_CAT_ID   = 68062
ELEMENT_SET_NO = 999
REV_AT_EPOCH   = 412
BSTAR          = .15989E-2
MEAN_MOTION_DOT = .252794E-2
MEAN_MOTION_DDOT = 0

CCSDS_OMM_VERS = 2.0
CREATION_DATE  = 
ORIGINATOR     = 

OBJECT_NAME    = STARLINK-37000
OBJECT_ID      = 2026-041Z
CENTER_NAME    = EARTH
REF_FRAME      = TEME
TIME_SYSTEM    = UTC
MEAN_ELEMENT_THEORY = SGP/SGP4

EPOCH          = 2026-03-27T22:37:37.875072
MEAN_MOTION    = 15.75294267
ECCENTRICITY   = .0000968
INCLINATION    = 53.1602
RA_OF_ASC_NODE = 330.7922
ARG_OF_PERICENTER = 90.4751
MEAN_ANOMALY   = 269.6380

EPHEMERIS_TYPE = 0
CLASSIFICATION_TYPE = U
NORAD_CAT_ID   = 68063
ELEMENT_SET_NO = 999
REV_AT_EPOCH   = 410
BSTAR          = .14671E-2
MEAN_MOTION_DOT = .231049E-2
MEAN_MOTION_DDOT = 0

CCSDS_OMM_VERS = 2.0
CREATION_DATE  = 
ORIGINATOR     = 

OBJECT_NAME    = STARLINK-36996
OBJECT_ID      = 2026-041AA
CENTER_NAME    = EARTH
REF_FRAME      = TEME
TIME_SYSTEM    = UTC
MEAN_ELEMENT_THEORY = SGP/SGP4

EPOCH          = 2026-03-28T04:00:01.999584
MEAN_MOTION    = 15.75305220
ECCENTRICITY   = .0000983
INCLINATION    = 53.1586
RA_OF_ASC_NODE = 329.4165
ARG_OF_PERICENTER = 83.8750
MEAN_ANOMALY   = 235.4873

EPHEMERIS_TYPE = 0
CLASSIFICATION_TYPE = U
NORAD_CAT_ID   = 68064
ELEMENT_SET_NO = 999
REV_AT_EPOCH   = 534
BSTAR          = -.11351E-2
MEAN_MOTION_DOT = -.171641E-2
MEAN_MOTION_DDOT = 0

CCSDS_OMM_VERS = 2.0
CREATION_DATE  = 
ORIGINATOR     = 

OBJECT_NAME    = STARLINK-36836
OBJECT_ID      = 2026-041AB
CENTER_NAME    = EARTH
REF_FRAME      = TEME
TIME_SYSTEM    = UTC
MEAN_ELEMENT_THEORY = SGP/SGP4

EPOCH          = 2026-03-28T04:00:01.999584
MEAN_MOTION    = 15.75256854
ECCENTRICITY   = .0001037
INCLINATION    = 53.1586
RA_OF_ASC_NODE = 329.4123
ARG_OF_PERICENTER = 61.8346
MEAN_ANOMALY   = 259.4351

EPHEMERIS_TYPE = 0
CLASSIFICATION_TYPE = U
NORAD_CAT_ID   = 68065
ELEMENT_SET_NO = 999
REV_AT_EPOCH   = 534
BSTAR          = -.96069E-3
MEAN_MOTION_DOT = -.145509E-2
MEAN_MOTION_DDOT = 0

CCSDS_OMM_VERS = 2.0
CREATION_DATE  = 
ORIGINATOR     = 

OBJECT_NAME    = STARLINK-36976
OBJECT_ID      = 2026-041AC
CENTER_NAME    = EARTH
REF_FRAME      = TEME
TIME_SYSTEM    = UTC
MEAN_ELEMENT_THEORY = SGP/SGP4

EPOCH          = 2026-03-28T01:53:25.784160
MEAN_MOTION    = 15.75266996
ECCENTRICITY   = .0001213
INCLINATION    = 53.1584
RA_OF_ASC_NODE = 330.2201
ARG_OF_PERICENTER = 57.8964
MEAN_ANOMALY   = 302.2174

EPHEMERIS_TYPE = 0
CLASSIFICATION_TYPE = U
NORAD_CAT_ID   = 68066
ELEMENT_SET_NO = 999
REV_AT_EPOCH   = 412
BSTAR          = .21932E-2
MEAN_MOTION_DOT = .350279E-2
MEAN_MOTION_DDOT = 0

CCSDS_OMM_VERS = 2.0
CREATION_DATE  = 
ORIGINATOR     = 

OBJECT_NAME    = STARLINK-36929
OBJECT_ID      = 2026-041AD
CENTER_NAME    = EARTH
REF_FRAME      = TEME
TIME_SYSTEM    = UTC
MEAN_ELEMENT_THEORY = SGP/SGP4

EPOCH          = 2026-03-28T03:30:50.881536
MEAN_MOTION    = 15.75350671
ECCENTRICITY   = .0000646
INCLINATION    = 53.1585
RA_OF_ASC_NODE = 329.9334
ARG_OF_PERICENTER = 62.7676
MEAN_ANOMALY   = 297.3410

EPHEMERIS_TYPE = 0
CLASSIFICATION_TYPE = U
NORAD_CAT_ID   = 68067
ELEMENT_SET_NO = 999
REV_AT_EPOCH   = 413
BSTAR          = .175E-2
MEAN_MOTION_DOT = .277981E-2
MEAN_MOTION_DDOT = 0

CCSDS_OMM_VERS = 2.0
CREATION_DATE  = 
ORIGINATOR     = 

OBJECT_NAME    = STARLINK-36990
OBJECT_ID      = 2026-041AE
CENTER_NAME    = EARTH
REF_FRAME      = TEME
TIME_SYSTEM    = UTC
MEAN_ELEMENT_THEORY = SGP/SGP4

EPOCH          = 2026-03-27T23:22:25.610592
MEAN_MOTION    = 15.80964857
ECCENTRICITY   = .0000989
INCLINATION    = 53.1586
RA_OF_ASC_NODE = 330.2602
ARG_OF_PERICENTER = 54.3772
MEAN_ANOMALY   = 305.7343

EPHEMERIS_TYPE = 0
CLASSIFICATION_TYPE = U
NORAD_CAT_ID   = 68068
ELEMENT_SET_NO = 999
REV_AT_EPOCH   = 411
BSTAR          = .12885E-2
MEAN_MOTION_DOT = .262604E-2
MEAN_MOTION_DDOT = 0

CCSDS_OMM_VERS = 2.0
CREATION_DATE  = 
ORIGINATOR     = 

OBJECT_NAME    = STARLINK-36766
OBJECT_ID      = 2026-042A
CENTER_NAME    = EARTH
REF_FRAME      = TEME
TIME_SYSTEM    = UTC
MEAN_ELEMENT_THEORY = SGP/SGP4

EPOCH          = 2026-03-28T05:16:07.237344
MEAN_MOTION    = 15.81098952
ECCENTRICITY   = .0001658
INCLINATION    = 53.1588
RA_OF_ASC_NODE = 101.9139
ARG_OF_PERICENTER = 152.9481
MEAN_ANOMALY   = 207.1629

EPHEMERIS_TYPE = 0
CLASSIFICATION_TYPE = U
NORAD_CAT_ID   = 68069
ELEMENT_SET_NO = 999
REV_AT_EPOCH   = 501
BSTAR          = .27224E-2
MEAN_MOTION_DOT = .580316E-2
MEAN_MOTION_DDOT = 0

